NORAD_CAT_ID,OBJECT_NAME,OBJECT_TYPE,EPOCH,MEAN_MOTION,ECCENTRICITY,INCLINATION,RA_OF_ASC_NODE,ARG_OF_PERICENTER,MEAN_ANOMALY,BSTAR,MEAN_MOTION_DOT,MEAN_MOTION_DDOT,TLE_LINE0,TLE_LINE1,TLE_LINE2,SEMIMAJOR_AXIS,PERIOD,APOGEE,PERIGEE,DECAYED
50161.0,STARLINK-3304,PAYLOAD,2023-11-10 17:06:33,15.08857515,0.0001201,53.2153,114.8147,76.9489,283.1637,0.00043661,6.671e-05,0.0,0 STARLINK-3304,1 50161U 21125F   23314.71289283  .00006671  00000-0  43661-3 0  9990,2 50161  53.2153 114.8147 0001201  76.9489 283.1637 15.08857515108135,6917.827,95.436,540.523,538.861,0.0
50161.0,STARLINK-3304,PAYLOAD,2023-11-11 13:46:34,15.08854406,0.000137,53.217,110.9482,90.5464,269.5686,9.2381e-05,1.183e-05,0.0,0 STARLINK-3304,1 50161U 21125F   23315.57400831  .00001183  00000-0  92381-4 0  9996,2 50161  53.2170 110.9482 0001370  90.5464 269.5686 15.08854406108267,6917.836,95.437,540.649,538.754,0.0
50161.0,STARLINK-3304,PAYLOAD,2023-11-11 20:08:06,15.08853377,0.0001171,53.2154,109.7593,74.0451,286.067,6.1935e-05,6.98e-06,0.0,0 STARLINK-3304,1 50161U 21125F   23315.83896614  .00000698  00000-0  61935-4 0  9994,2 50161  53.2154 109.7593 0001171  74.0451 286.0670 15.08853377107824,6917.84,95.437,540.515,538.894,0.0
50161.0,STARLINK-3304,PAYLOAD,2023-11-12 10:26:35,15.08844171,0.0001417,53.217,107.0821,87.5229,272.5926,-3.646e-05,-8.68e-06,0.0,0 STARLINK-3304,1 50161U 21125F   23316.43513192 -.00000868  00000-0 -36460-4 0  9994,2 50161  53.2170 107.0821 0001417  87.5229 272.5926 15.08844171107918,6917.868,95.437,540.713,538.752,0.0
50161.0,STARLINK-3304,PAYLOAD,2023-11-12 13:37:21,15.08846146,0.0001337,53.2162,106.488,87.8953,272.2192,-5.1857e-05,-1.113e-05,0.0,0 STARLINK-3304,1 50161U 21125F   23316.56760996 -.00001113  00000-0 -51857-4 0  9995,2 50161  53.2162 106.4880 0001337  87.8953 272.2192 15.08846146108417,6917.862,95.437,540.652,538.802,0.0
50161.0,STARLINK-3304,PAYLOAD,2023-11-12 16:48:07,15.0884945,0.0001319,53.2172,105.892,95.4812,264.6331,-9.2237e-05,-1.756e-05,0.0,0 STARLINK-3304,1 50161U 21125F   23316.70008745 -.00001756  00000-0 -92237-4 0  9998,2 50161  53.2172 105.8920 0001319  95.4812 264.6331 15.08849450108438,6917.852,95.437,540.629,538.804,0.0
50161.0,STARLINK-3304,PAYLOAD,2023-11-13 13:28:08,15.08841471,0.0001399,53.2177,102.0263,101.6207,258.4942,6.0478e-05,6.75e-06,0.0,0 STARLINK-3304,1 50161U 21125F   23317.56120645  .00000675  00000-0  60478-4 0  9996,2 50161  53.2177 102.0263 0001399 101.6207 258.4942 15.08841471108566,6917.876,95.437,540.709,538.773,0.0
50161.0,STARLINK-3304,PAYLOAD,2023-11-13 16:38:54,15.08844677,0.0001333,53.2181,101.4343,102.7865,257.3276,5.4885e-05,5.86e-06,0.0,0 STARLINK-3304,1 50161U 21125F   23317.69368484  .00000586  00000-0  54885-4 0  9991,2 50161  53.2181 101.4343 0001333 102.7865 257.3276 15.08844677108102,6917.866,95.437,540.653,538.809,0.0
50161.0,STARLINK-3304,PAYLOAD,2023-11-14 10:08:09,15.08833769,0.0001312,53.2181,98.1638,89.8817,270.2325,4.5216e-05,4.32e-06,0.0,0 STARLINK-3304,1 50161U 21125F   23318.42233345  .00000432  00000-0  45216-4 0  9998,2 50161  53.2181  98.1638 0001312  89.8817 270.2325 15.08833769108211,6917.899,95.438,540.672,538.857,0.0
50161.0,STARLINK-3304,PAYLOAD,2023-11-14 13:18:55,15.08834966,0.0001315,53.2183,97.5692,89.926,270.1883,5.0613e-05,5.18e-06,0.0,0 STARLINK-3304,1 50161U 21125F   23318.55481302  .00000518  00000-0  50613-4 0  9992,2 50161  53.2183  97.5692 0001315  89.9260 270.1883 15.08834966108715,6917.896,95.438,540.67,538.851,0.0
50161.0,STARLINK-3304,PAYLOAD,2023-11-14 16:29:41,15.08837755,0.0001326,53.2184,96.9745,90.452,269.6624,6.8188e-05,7.97e-06,0.0,0 STARLINK-3304,1 50161U 21125F   23318.68729099  .00000797  00000-0  68188-4 0  9999,2 50161  53.2184  96.9745 0001326  90.4520 269.6624 15.08837755108733,6917.887,95.438,540.67,538.835,0.0
50161.0,STARLINK-3304,PAYLOAD,2023-11-15 13:09:42,15.08838264,0.0001366,53.2162,93.1086,101.4531,258.6614,4.023e-05,3.52e-06,0.0,0 STARLINK-3304,1 50161U 21125F   23319.54841234  .00000352  00000-0  40230-4 0  9996,2 50161  53.2162  93.1086 0001366 101.4531 258.6614 15.08838264108862,6917.886,95.438,540.696,538.806,0.0
50161.0,STARLINK-3304,PAYLOAD,2023-11-15 16:20:29,15.08839756,0.0001297,53.2162,92.514,98.714,261.3999,4.8584e-05,4.85e-06,0.0,0 STARLINK-3304,1 50161U 21125F   23319.68089137  .00000485  00000-0  48584-4 0  9994,2 50161  53.2162  92.5140 0001297  98.7140 261.3999 15.08839756108407,6917.881,95.438,540.643,538.849,0.0
50161.0,STARLINK-3304,PAYLOAD,2023-11-16 17:46:39,15.08838675,0.0001151,53.2165,87.7558,94.9802,265.1321,4.812e-05,4.78e-06,0.0,0 STARLINK-3304,1 50161U 21125F   23320.74073323  .00000478  00000-0  48120-4 0  9991,2 50161  53.2165  87.7558 0001151  94.9802 265.1321 15.08838675108568,6917.884,95.438,540.546,538.953,0.0
50161.0,STARLINK-3304,PAYLOAD,2023-11-17 14:26:40,15.08838088,0.0001183,53.2166,83.8898,92.9262,267.1865,3.5841e-05,2.83e-06,0.0,0 STARLINK-3304,1 50161U 21125F   23321.60185529  .00000283  00000-0  35841-4 0  9999,2 50161  53.2166  83.8898 0001183  92.9262 267.1865 15.08838088109177,6917.886,95.438,540.57,538.933,0.0
50161.0,STARLINK-3304,PAYLOAD,2023-11-18 12:42:04,15.08837126,0.0001136,53.2176,79.7268,93.4843,266.6279,5.3701e-05,5.67e-06,0.0,0 STARLINK-3304,1 50161U 21125F   23322.52921649  .00000567  00000-0  53701-4 0  9992,2 50161  53.2176  79.7268 0001136  93.4843 266.6279 15.08837126108839,6917.889,95.438,540.54,538.968,0.0
50161.0,STARLINK-3304,PAYLOAD,2023-11-18 14:17:27,15.08835259,0.0001215,53.2171,79.4292,89.4058,270.7073,3.2444e-05,2.28e-06,0.0,0 STARLINK-3304,1 50161U 21125F   23322.59545864  .00000228  00000-0  32444-4 0  9995,2 50161  53.2171  79.4292 0001215  89.4058 270.7073 15.08835259109327,6917.895,95.438,540.6,538.919,0.0
50161.0,STARLINK-3304,PAYLOAD,2023-11-19 14:08:14,15.08843738,0.0001225,53.2177,74.9672,88.5224,271.5909,2.6277e-05,1.3e-06,0.0,0 STARLINK-3304,1 50161U 21125F   23323.58905400  .00000130  00000-0  26277-4 0  9990,2 50161  53.2177  74.9672 0001225  88.5224 271.5909 15.08843738109475,6917.869,95.437,540.581,538.887,0.0
50161.0,STARLINK-3304,PAYLOAD,2023-11-20 13:59:01,15.08843861,0.0001229,53.2181,70.5084,85.102,275.0112,6.1972e-05,6.99e-06,0.0,0 STARLINK-3304,1 50161U 21125F   23324.58265220  .00000699  00000-0  61972-4 0  9991,2 50161  53.2181  70.5084 0001229  85.1020 275.0112 15.08843861109629,6917.869,95.437,540.584,538.883,0.0
50161.0,STARLINK-3304,PAYLOAD,2023-11-21 02:42:06,15.08839186,0.0001257,53.2183,68.1309,83.889,276.2245,1.1476e-05,-1.05e-06,0.0,0 STARLINK-3304,1 50161U 21125F   23325.11257614 -.00000105  00000-0  11476-4 0  9996,2 50161  53.2183  68.1309 0001257  83.8890 276.2245 15.08839186109226,6917.883,95.438,540.617,538.878,0.0
50161.0,STARLINK-3304,PAYLOAD,2023-11-21 13:49:48,15.0884578,0.000132,53.2186,66.0501,87.0465,273.0678,6.3192e-05,7.18e-06,0.0,0 STARLINK-3304,1 50161U 21125F   23325.57625067  .00000718  00000-0  63192-4 0  9998,2 50161  53.2186  66.0501 0001320  87.0465 273.0678 15.08845780109777,6917.863,95.437,540.641,538.815,0.0
50161.0,STARLINK-3304,PAYLOAD,2023-11-21 17:00:33,15.08849208,0.0001324,53.218,65.452,94.0153,266.0991,8.6705e-05,1.093e-05,0.0,0 STARLINK-3304,1 50161U 21125F   23325.70872673  .00001093  00000-0  86705-4 0  9992,2 50161  53.2180  65.4520 0001324  94.0153 266.0991 15.08849208109792,6917.852,95.437,540.633,538.801,0.0
50161.0,STARLINK-3304,PAYLOAD,2023-11-22 12:05:11,15.08845167,0.0001729,53.2188,61.8849,108.5063,251.6117,7.8547e-05,9.62e-06,0.0,0 STARLINK-3304,1 50161U 21125F   23326.50360750  .00000962  00000-0  78547-4 0  9998,2 50161  53.2188  61.8849 0001729 108.5063 251.6117 15.08845167109435,6917.865,95.437,540.926,538.533,0.0
50161.0,STARLINK-3304,PAYLOAD,2023-11-23 11:55:59,15.08833181,0.0001672,53.2181,57.4233,114.3009,245.8158,5.4311e-06,-2.02e-06,0.0,0 STARLINK-3304,1 50161U 21125F   23327.49722032 -.00000202  00000-0  54311-5 0  9994,2 50161  53.2181  57.4233 0001672 114.3009 245.8158 15.08833181109587,6917.901,95.438,540.923,538.61,0.0
50161.0,STARLINK-3304,PAYLOAD,2023-11-23 13:31:23,15.0883409,0.0001526,53.2182,57.1262,97.293,262.8236,1.7971e-05,-2e-08,0.0,0 STARLINK-3304,1 50161U 21125F   23327.56346080 -.00000002  00000-0  17971-4 0  9995,2 50161  53.2182  57.1262 0001526  97.2930 262.8236 15.08834090110079,6917.898,95.438,540.819,538.708,0.0
50161.0,STARLINK-3304,PAYLOAD,2023-11-24 13:22:10,15.08837577,0.0002048,53.2195,52.6674,84.9847,275.1378,-3.976e-06,-3.52e-06,0.0,0 STARLINK-3304,1 50161U 21125F   23328.55706645 -.00000352  00000-0 -39760-5 0  9992,2 50161  53.2195  52.6674 0002048  84.9847 275.1378 15.08837577110224,6917.888,95.438,541.17,538.336,0.0
50161.0,STARLINK-3304,PAYLOAD,2023-11-24 14:57:33,15.0883956,0.0002011,53.2195,52.37,87.1943,272.9279,-9.1355e-06,-4.34e-06,0.0,0 STARLINK-3304,1 50161U 21125F   23328.62330521 -.00000434  00000-0 -91355-5 0  9995,2 50161  53.2195  52.3700 0002011  87.1943 272.9279 15.08839560109758,6917.882,95.438,541.138,538.356,0.0
50161.0,STARLINK-3304,PAYLOAD,2023-11-25 13:12:56,15.08856973,0.0001724,53.2199,48.2075,79.2998,280.8188,0.0003261,4.908e-05,0.0,0 STARLINK-3304,1 50161U 21125F   23329.55065121  .00004908  00000-0  32610-3 0  9994,2 50161  53.2199  48.2075 0001724  79.2998 280.8188 15.08856973110377,6917.829,95.436,540.886,538.501,0.0
50161.0,STARLINK-3304,PAYLOAD,2023-11-26 09:52:56,15.08856795,0.0001456,53.2194,44.3363,126.1353,233.9774,0.0001805,2.587e-05,0.0,0 STARLINK-3304,1 50161U 21125F   23330.41176596  .00002587  00000-0  18050-3 0  9993,2 50161  53.2194  44.3363 0001456 126.1353 233.9774 15.08856795110022,6917.829,95.436,540.701,538.687,0.0
50161.0,STARLINK-3304,PAYLOAD,2023-11-26 14:39:06,15.08863112,0.0001987,53.2187,43.4425,72.7981,287.3228,0.00031574,4.744e-05,0.0,0 STARLINK-3304,1 50161U 21125F   23330.61048770  .00004744  00000-0  31574-3 0  9990,2 50161  53.2187  43.4425 0001987  72.7981 287.3228 15.08863112110539,6917.81,95.436,541.049,538.3,0.0
